STARLINK-37345          
1 69156U 26111J   26162.51322750  .00200982  00000+0  99487-3 0  9990
2 69156  53.1588 180.0459 0001603 132.5329 227.5829 15.80947339  3367
STARLINK-37353          
1 69157U 26111K   26162.57623322  .00209375  00000+0  10353-2 0  9995
2 69157  53.1579 179.7292 0001086 102.2179 257.8966 15.80945603  3371
STARLINK-37363          
1 69158U 26111L   26162.51093742  .00241689  00000+0  11893-2 0  9991
2 69158  53.1579 180.0312 0000981  85.5288 274.5847 15.80960877  3360
STARLINK-37343          
1 69159U 26111M   26162.83335647 -.02434607  00000+0 -43033-1 0  9998
2 69159  53.1587 178.9315 0001269  78.9626  62.8322 15.53635611  4688
STARLINK-37328          
1 69160U 26111N   26162.51081058  .00167492  00000+0  83311-3 0  9995
2 69160  53.1578 180.0293 0001190 114.8575 245.2572 15.80942285  3361
STARLINK-37311          
1 69161U 26111P   26162.58184448  .00105222  00000+0  60147-3 0  9995
2 69161  53.1584 179.7659 0001226  73.0761 287.0394 15.78089630  3373
STARLINK-36286          
1 69162U 26111Q   26162.58097557  .00146780  00000+0  83256-3 0  9990
2 69162  53.1582 179.7580 0000998 117.3718 242.7405 15.78113535  3377
STARLINK-37196          
1 69163U 26111R   26162.52037751  .00192426  00000+0  10843-2 0  9994
2 69163  53.1585 180.0938 0001130 103.6068 256.5079 15.78116980  3364
STARLINK-36288          
1 69164U 26111S   26162.51956626  .00208655  00000+0  11724-2 0  9996
2 69164  53.1583 180.0882 0000915 106.6252 253.4870 15.78131207  3363
STARLINK-37445          
1 69165U 26111T   26162.51642681  .00160300  00000+0  90775-3 0  9998
2 69165  53.1584 180.0671 0001187  78.5702 281.5453 15.78106147  3364
STARLINK-37491          
1 69166U 26111U   26162.51877378  .00175578  00000+0  99152-3 0  9993
2 69166  53.1581 180.0830 0001060 101.3660 258.7481 15.78119853  3362
STARLINK-37474          
1 69167U 26111V   26162.57954838  .00171168  00000+0  96656-3 0  9994
2 69167  53.1583 179.7493 0000932  94.2715 265.8413 15.78134722  3370
STARLINK-37469          
1 69168U 26111W   26162.83335647  .00058212  00000+0  10488-2 0  9997
2 69168  53.1593 179.1079 0000817 122.7546 290.9596 15.49257799  4681
STARLINK-37515          
1 69169U 26111X   26162.51458453  .00160197  00000+0  90740-3 0  9990
2 69169  53.1591 180.0547 0001815  54.8108 305.3083 15.78100283  3362
STARLINK-37437          
1 69170U 26111Y   26162.83335647 -.00067259  00000+0 -38620-3 0  9992
2 69170  53.1585 178.4133 0001010  93.4925 302.9356 15.78075919  4681
STARLINK-37392          
1 69171U 26111Z   26162.50778253  .00101034  00000+0  57811-3 0  9992
2 69171  53.1588 180.0083 0000808  81.7301 278.3812 15.78084460  3368
STARLINK-37472          
1 69172U 26111AA  26162.83335647 -.02577848  00000+0 -24061-1 0  9998
2 69172  53.1588 178.3918 0000868  88.8556 316.7456 15.70093390  4683
STARLINK-37461          
1 69173U 26111AB  26162.83335647  .00072594  00000+0  13034-2 0  9992
2 69173  53.1588 179.0155 0001277 112.8016 346.3043 15.49260500  4685
STARLINK-37333          
1 69174U 26111AC  26162.51300840 -.00419143  00000+0 -25704-2 0  9999
2 69174  53.1581 180.0439 0002234  62.8478 297.2771 15.77697826  3368
STARLINK-37385          
1 69175U 26111AD  26162.83335647 -.00356039  00000+0 -66410-2 0  9991
2 69175  53.1589 178.9283 0000711  68.0801  73.7518 15.49515847  4689
STARLINK-37414          
1 69176U 26111AE  26162.57193117  .00186550  00000+0  10520-2 0  9995
2 69176  53.1583 179.6977 0001288 104.2663 255.8502 15.78117451  3373
STRIX-7                 
1 69177U 26112A   26162.58343426  .00002752  00000+0  22660-3 0  9998
2 69177  44.9064 221.8811 0023690  15.2295 344.9285 15.01410044  3037
SHENZHOU-23 (SZ-23)     
1 69180U 26113A   26162.53781054  .00016554  00000+0  19807-3 0  9995
2 69180  41.4693 356.3769 0008209  31.5834 328.5496 15.60566891292574
STARLINK-37380          
1 69182U 26114A   26162.77291257  .00124615  00000+0  70980-3 0  9992
2 69182  53.1586 229.5304 0001034  92.5631 267.5509 15.78096172  3918
STARLINK-37089          
1 69183U 26114B   26162.77197703  .00130413  00000+0  74178-3 0  9990
2 69183  53.1589 229.5243 0000979  94.4791 265.6342 15.78107250  3913
STARLINK-37428          
1 69184U 26114C   26162.77056944  .00187283  00000+0  10554-2 0  9996
2 69184  53.1589 229.5153 0000923  91.9085 268.2042 15.78130624  3918
STARLINK-37237          
1 69185U 26114D   26162.76781537  .00119424  00000+0  68054-3 0  9990
2 69185  53.1593 229.4963 0000843 133.1072 227.0020 15.78104989  3912
STARLINK-37365          
1 69186U 26114E   26162.76813109  .00193999  00000+0  10929-2 0  9998
2 69186  53.1591 229.4981 0000937 146.7460 213.3621 15.78117991  3918
STARLINK-37209          
1 69187U 26114F   26162.76736000  .00138908  00000+0  78913-3 0  9990
2 69187  53.1594 229.4930 0001043  87.7089 272.4052 15.78105239  3912
